OBJECT_NAME,OBJECT_ID,EPOCH,MEAN_MOTION,ECCENTRICITY,INCLINATION,RA_OF_ASC_NODE,ARG_OF_PERICENTER,MEAN_ANOMALY,EPHEMERIS_TYPE,CLASSIFICATION_TYPE,NORAD_CAT_ID,ELEMENT_SET_NO,REV_AT_EPOCH,BSTAR,MEAN_MOTION_DOT,MEAN_MOTION_DDOT
LAOSAT 1,2015-067A,2026-07-11T19:18:07.129152,1.00270101,.0002181,0.0381,157.7055,260.9281,289.1205,0,U,41034,999,3910,0,-.339E-5,0
TELSTAR 12V,2015-068A,2026-07-11T20:19:48.042912,1.00270214,.0002052,0.0243,34.5481,74.1687,110.9911,0,U,41036,999,3887,0,0,0
ELEKTRO-L 2,2015-074A,2026-07-11T10:04:03.448704,1.00272476,.00008885,6.7510,70.2237,218.2194,137.3884,0,U,41105,999,3874,0,-.118E-5,0
COSMOS 2513,2015-075A,2026-07-12T01:55:01.188768,1.00271190,.0002529,0.0640,102.9787,343.1244,312.8699,0,U,41121,999,3879,0,-.135E-5,0
IRNSS-1E,2016-003A,2026-07-10T13:58:50.692224,1.00267797,.0019285,33.2836,59.4106,178.7449,11.7354,0,U,41241,999,3831,0,-.316E-5,0
EUTELSAT 9B,2016-005A,2026-07-11T20:26:39.884928,1.00269526,.0001045,0.0283,52.6989,44.2948,148.4168,0,U,41310,999,3836,0,.65E-6,0
SES-9,2016-013A,2026-07-11T11:22:38.889408,1.00270691,.00021162,0.0146,332.5333,133.1450,102.6698,0,U,41380,999,3768,0,-.339E-5,0
IRNSS-1F,2016-015A,2026-07-10T22:18:55.507968,1.00279141,.00173976,5.4067,96.2421,183.5118,16.4345,0,U,41384,999,3790,0,.161E-5,0
BEIDOU-2 IGSO-6,2016-021A,2026-06-26T02:38:38.671584,1.00258926,.0057558,60.2385,37.9495,231.0163,137.2672,0,U,41434,999,3757,0,-.145E-5,0
IRNSS-1G,2016-027A,2026-07-11T15:53:08.725056,1.00272899,.0005969,5.2542,96.9079,9.8373,190.7801,0,U,41469,999,3742,0,-.334E-5,0
JCSAT-2B,2016-028A,2026-07-11T17:42:45.734976,1.00271655,.0000756,0.0186,32.4599,77.7939,239.0817,0,U,41471,999,3737,0,-.161E-5,0
THAICOM 8,2016-031A,2026-07-11T21:27:44.844192,1.00270579,.000298,0.0691,45.3765,28.0233,256.8216,0,U,41552,999,3696,0,-.117E-5,0
BEIDOU-2 G7,2016-037A,2026-07-11T19:13:00.118848,1.00275483,.0006028,1.7772,69.4798,359.4436,259.5394,0,U,41586,999,713,0,-.351E-5,0
ABS-2A (MONGOLSAT-1),2016-038A,2026-07-11T10:29:31.009344,1.00270427,.00012104,0.0126,16.5016,41.0122,103.9139,0,U,41588,999,3695,0,-.77E-6,0
EUTELSAT 117 WEST B,2016-038B,2026-07-11T16:25:28.125984,1.00271300,.0000326,0.0108,140.1475,345.6914,293.1306,0,U,41589,999,3690,0,-.7E-7,0
ECHOSTAR 18,2016-039B,2026-07-11T20:06:39.972960,1.00269970,.0001348,0.0039,99.1812,22.7603,48.0969,0,U,41592,999,3687,0,-.278E-5,0
MUOS-5,2016-041A,2026-07-11T16:28:20.352288,1.00271781,.0199405,2.1529,302.1253,260.6410,228.7630,0,U,41622,999,3733,0,-.115E-5,0
JCSAT-16,2016-050A,2026-07-11T14:14:32.981856,1.00271358,.0001025,0.0189,36.6801,103.9126,146.4872,0,U,41729,999,3631,0,-.246E-5,0
USA 270,2016-052A,2026-07-11T11:26:02.408928,1.00269374,.0009314,4.2578,76.8776,101.3149,48.8838,0,U,41744,999,2837,0,-.349E-5,0
USA 271,2016-052B,2026-07-07T17:38:01.230144,1.00271212,.0010955,4.2217,76.9947,166.6184,44.5685,0,U,41745,999,2812,0,-.278E-5,0
INTELSAT 36 (IS-36),2016-053A,2026-07-11T12:14:38.597280,1.00269566,.00025136,0.0105,355.6291,345.6309,200.3095,0,U,41747,999,3620,0,-.18E-6,0
INSAT-3DR,2016-054A,2026-07-11T21:22:01.193376,1.00271971,.001064,0.0611,88.7325,181.7646,53.8059,0,U,41752,999,3606,0,-.73E-6,0
GSAT-18,2016-060A,2026-07-11T21:25:09.605856,1.00271080,.0005256,0.0267,89.2130,348.6329,247.2037,0,U,41793,999,3577,0,-.73E-6,0
SKY MUSTER 2 (NBN1B),2016-060B,2026-07-11T21:05:25.859328,1.00270891,.0001351,0.0153,351.4041,118.7033,280.8198,0,U,41794,999,3576,0,-.24E-5,0
HIMAWARI-9,2016-064A,2026-07-11T21:04:18.467328,1.00269999,.0002255,0.0289,55.5033,123.3481,207.7688,0,U,41836,999,3545,0,0,0
